ONEWEB-0627             
1 55168U 23004AE  26091.51836019 -.00000176  00000+0 -48729-3 0  9993
2 55168  87.9183  21.1005 0001298  78.0910 282.0367 13.17649281157482
ONEWEB-0628             
1 55169U 23004AF  26091.48171585 -.00000327  00000+0 -94510-3 0  9997
2 55169  87.9018   5.8834 0001079  86.3328 273.7924 13.12444870157973
ONEWEB-0629             
1 55170U 23004AG  26091.49390597  .00000013  00000+0  51124-6 0  9993
2 55170  87.9181  21.1024 0001679  88.6295 271.5029 13.17649790157483
ONEWEB-0631             
1 55171U 23004AH  26091.46586234  .00000057  00000+0  11231-3 0  9996
2 55171  87.9242 350.6828 0001841  63.2066 296.9254 13.18688335159561
ONEWEB-0709             
1 55172U 23004AJ  26091.37351332  .00000604  00000+0  16682-2 0  9998
2 55172  87.8899  36.3499 0002598  67.6669 292.4735 13.11417461155809
ONEWEB-0710             
1 55173U 23004AK  26091.50824364  .00000072  00000+0  15210-3 0  9990
2 55173  87.9181  21.0947 0001662  75.4528 284.6788 13.17650795157488
ONEWEB-0711             
1 55174U 23004AL  26091.34465959 -.00000262  00000+0 -77433-3 0  9992
2 55174  87.8914  36.3400 0001156  67.8843 292.2407 13.11420170155766
ONEWEB-0713             
1 55175U 23004AM  26091.36332727  .00000512  00000+0  14080-2 0  9995
2 55175  87.8912  36.3359 0001482  73.9378 286.1913 13.11419254155755
ONEWEB-0715             
1 55176U 23004AN  26091.35823722  .00000310  00000+0  83868-3 0  9992
2 55176  87.8911  36.3362 0002231  60.4988 299.6362 13.11420051155798
ONEWEB-0716             
1 55177U 23004AP  26091.50150296  .00000095  00000+0  21217-3 0  9999
2 55177  87.9184  21.0969 0002010  84.1226 276.0135 13.17651196157486
ONEWEB-0717             
1 55178U 23004AQ  26091.33275184  .00000135  00000+0  31461-3 0  9992
2 55178  87.9191  21.1118 0001282  62.1760 297.9501 13.17650560157518
ONEWEB-0719             
1 55179U 23004AR  26091.49475050  .00000058  00000+0  11739-3 0  9994
2 55179  87.9193  21.0610 0001835  84.7755 275.3586 13.17650028157483
ONEWEB-0530             
1 55796U 23029A   26091.50034225  .00000080  00000+0  16594-3 0  9992
2 55796  87.9133 289.7883 0001218  96.2939 263.8333 13.20771830151029
ONEWEB-0534             
1 55797U 23029B   26091.26044584  .00000165  00000+0  37429-3 0  9999
2 55797  87.9133 289.8350 0001781  92.4225 267.7112 13.20772269150991
ONEWEB-0556             
1 55798U 23029C   26091.26675568  .00000133  00000+0  29441-3 0  9992
2 55798  87.9129 289.8354 0001990 117.6829 242.4506 13.20772967150995
ONEWEB-0562             
1 55799U 23029D   26091.25413115  .00000074  00000+0  15081-3 0  9999
2 55799  87.9132 289.8182 0001147 118.5117 241.6132 13.20772014150992
ONEWEB-0563             
1 55800U 23029E   26091.47508703  .00000086  00000+0  17962-3 0  9997
2 55800  87.9129 289.8048 0001913  95.0641 265.0710 13.20771221151019
