[{"OBJECT_NAME":"ONEWEB-0627","OBJECT_ID":"2023-004AE","EPOCH":"2026-04-01T12:26:26.320416","MEAN_MOTION":13.17649281,"ECCENTRICITY":0.0001298,"INCLINATION":87.9183,"RA_OF_ASC_NODE":21.1005,"ARG_OF_PERICENTER":78.091,"MEAN_ANOMALY":282.0367,"EPHEMERIS_TYPE":0,"CLASSIFICATION_TYPE":"U","NORAD_CAT_ID":55168,"ELEMENT_SET_NO":999,"REV_AT_EPOCH":15748,"BSTAR":-0.00048729,"MEAN_MOTION_DOT":-1.76e-6,"MEAN_MOTION_DDOT":0},{"OBJECT_NAME":"ONEWEB-0628","OBJECT_ID":"2023-004AF","EPOCH":"2026-04-01T11:33:40.249440","MEAN_MOTION":13.1244487,"ECCENTRICITY":0.0001079,"INCLINATION":87.9018,"RA_OF_ASC_NODE":5.8834,"ARG_OF_PERICENTER":86.3328,"MEAN_ANOMALY":273.7924,"EPHEMERIS_TYPE":0,"CLASSIFICATION_TYPE":"U","NORAD_CAT_ID":55169,"ELEMENT_SET_NO":999,"REV_AT_EPOCH":15797,"BSTAR":-0.0009451,"MEAN_MOTION_DOT":-3.27e-6,"MEAN_MOTION_DDOT":0},{"OBJECT_NAME":"ONEWEB-0629","OBJECT_ID":"2023-004AG","EPOCH":"2026-04-01T11:51:13.475808","MEAN_MOTION":13.1764979,"ECCENTRICITY":0.0001679,"INCLINATION":87.9181,"RA_OF_ASC_NODE":21.1024,"ARG_OF_PERICENTER":88.6295,"MEAN_ANOMALY":271.5029,"EPHEMERIS_TYPE":0,"CLASSIFICATION_TYPE":"U","NORAD_CAT_ID":55170,"ELEMENT_SET_NO":999,"REV_AT_EPOCH":15748,"BSTAR":5.1124e-7,"MEAN_MOTION_DOT":1.3e-7,"MEAN_MOTION_DDOT":0},{"OBJECT_NAME":"ONEWEB-0631","OBJECT_ID":"2023-004AH","EPOCH":"2026-04-01T11:10:50.506176","MEAN_MOTION":13.18688335,"ECCENTRICITY":0.0001841,"INCLINATION":87.9242,"RA_OF_ASC_NODE":350.6828,"ARG_OF_PERICENTER":63.2066,"MEAN_ANOMALY":296.9254,"EPHEMERIS_TYPE":0,"CLASSIFICATION_TYPE":"U","NORAD_CAT_ID":55171,"ELEMENT_SET_NO":999,"REV_AT_EPOCH":15956,"BSTAR":0.00011231,"MEAN_MOTION_DOT":5.7e-7,"MEAN_MOTION_DDOT":0},{"OBJECT_NAME":"ONEWEB-0709","OBJECT_ID":"2023-004AJ","EPOCH":"2026-04-01T08:57:51.550848","MEAN_MOTION":13.11417461,"ECCENTRICITY":0.0002598,"INCLINATION":87.8899,"RA_OF_ASC_NODE":36.3499,"ARG_OF_PERICENTER":67.6669,"MEAN_ANOMALY":292.4735,"EPHEMERIS_TYPE":0,"CLASSIFICATION_TYPE":"U","NORAD_CAT_ID":55172,"ELEMENT_SET_NO":999,"REV_AT_EPOCH":15580,"BSTAR":0.0016682,"MEAN_MOTION_DOT":6.04e-6,"MEAN_MOTION_DDOT":0},{"OBJECT_NAME":"ONEWEB-0710","OBJECT_ID":"2023-004AK","EPOCH":"2026-04-01T12:11:52.250496","MEAN_MOTION":13.17650795,"ECCENTRICITY":0.0001662,"INCLINATION":87.9181,"RA_OF_ASC_NODE":21.0947,"ARG_OF_PERICENTER":75.4528,"MEAN_ANOMALY":284.6788,"EPHEMERIS_TYPE":0,"CLASSIFICATION_TYPE":"U","NORAD_CAT_ID":55173,"ELEMENT_SET_NO":999,"REV_AT_EPOCH":15748,"BSTAR":0.0001521,"MEAN_MOTION_DOT":7.2e-7,"MEAN_MOTION_DDOT":0},{"OBJECT_NAME":"ONEWEB-0711","OBJECT_ID":"2023-004AL","EPOCH":"2026-04-01T08:16:18.588576","MEAN_MOTION":13.1142017,"ECCENTRICITY":0.0001156,"INCLINATION":87.8914,"RA_OF_ASC_NODE":36.34,"ARG_OF_PERICENTER":67.8843,"MEAN_ANOMALY":292.2407,"EPHEMERIS_TYPE":0,"CLASSIFICATION_TYPE":"U","NORAD_CAT_ID":55174,"ELEMENT_SET_NO":999,"REV_AT_EPOCH":15576,"BSTAR":-0.00077433,"MEAN_MOTION_DOT":-2.62e-6,"MEAN_MOTION_DDOT":0},{"OBJECT_NAME":"ONEWEB-0713","OBJECT_ID":"2023-004AM","EPOCH":"2026-04-01T08:43:11.476128","MEAN_MOTION":13.11419254,"ECCENTRICITY":0.0001482,"INCLINATION":87.8912,"RA_OF_ASC_NODE":36.3359,"ARG_OF_PERICENTER":73.9378,"MEAN_ANOMALY":286.1913,"EPHEMERIS_TYPE":0,"CLASSIFICATION_TYPE":"U","NORAD_CAT_ID":55175,"ELEMENT_SET_NO":999,"REV_AT_EPOCH":15575,"BSTAR":0.001408,"MEAN_MOTION_DOT":5.12e-6,"MEAN_MOTION_DDOT":0},{"OBJECT_NAME":"ONEWEB-0715","OBJECT_ID":"2023-004AN","EPOCH":"2026-04-01T08:35:51.695808","MEAN_MOTION":13.11420051,"ECCENTRICITY":0.0002231,"INCLINATION":87.8911,"RA_OF_ASC_NODE":36.3362,"ARG_OF_PERICENTER":60.4988,"MEAN_ANOMALY":299.6362,"EPHEMERIS_TYPE":0,"CLASSIFICATION_TYPE":"U","NORAD_CAT_ID":55176,"ELEMENT_SET_NO":999,"REV_AT_EPOCH":15579,"BSTAR":0.00083868,"MEAN_MOTION_DOT":3.1e-6,"MEAN_MOTION_DDOT":0},{"OBJECT_NAME":"ONEWEB-0716","OBJECT_ID":"2023-004AP","EPOCH":"2026-04-01T12:02:09.855744","MEAN_MOTION":13.17651196,"ECCENTRICITY":0.000201,"INCLINATION":87.9184,"RA_OF_ASC_NODE":21.0969,"ARG_OF_PERICENTER":84.1226,"MEAN_ANOMALY":276.0135,"EPHEMERIS_TYPE":0,"CLASSIFICATION_TYPE":"U","NORAD_CAT_ID":55177,"ELEMENT_SET_NO":999,"REV_AT_EPOCH":15748,"BSTAR":0.00021217,"MEAN_MOTION_DOT":9.5e-7,"MEAN_MOTION_DDOT":0},{"OBJECT_NAME":"ONEWEB-0717","OBJECT_ID":"2023-004AQ","EPOCH":"2026-04-01T07:59:09.758976","MEAN_MOTION":13.1765056,"ECCENTRICITY":0.0001282,"INCLINATION":87.9191,"RA_OF_ASC_NODE":21.1118,"ARG_OF_PERICENTER":62.176,"MEAN_ANOMALY":297.9501,"EPHEMERIS_TYPE":0,"CLASSIFICATION_TYPE":"U","NORAD_CAT_ID":55178,"ELEMENT_SET_NO":999,"REV_AT_EPOCH":15751,"BSTAR":0.00031461,"MEAN_MOTION_DOT":1.35e-6,"MEAN_MOTION_DDOT":0},{"OBJECT_NAME":"ONEWEB-0719","OBJECT_ID":"2023-004AR","EPOCH":"2026-04-01T11:52:26.443200","MEAN_MOTION":13.17650028,"ECCENTRICITY":0.0001835,"INCLINATION":87.9193,"RA_OF_ASC_NODE":21.061,"ARG_OF_PERICENTER":84.7755,"MEAN_ANOMALY":275.3586,"EPHEMERIS_TYPE":0,"CLASSIFICATION_TYPE":"U","NORAD_CAT_ID":55179,"ELEMENT_SET_NO":999,"REV_AT_EPOCH":15748,"BSTAR":0.00011739,"MEAN_MOTION_DOT":5.8e-7,"MEAN_MOTION_DDOT":0},{"OBJECT_NAME":"ONEWEB-0530","OBJECT_ID":"2023-029A","EPOCH":"2026-04-01T12:00:29.570400","MEAN_MOTION":13.2077183,"ECCENTRICITY":0.0001218,"INCLINATION":87.9133,"RA_OF_ASC_NODE":289.7883,"ARG_OF_PERICENTER":96.2939,"MEAN_ANOMALY":263.8333,"EPHEMERIS_TYPE":0,"CLASSIFICATION_TYPE":"U","NORAD_CAT_ID":55796,"ELEMENT_SET_NO":999,"REV_AT_EPOCH":15102,"BSTAR":0.00016594,"MEAN_MOTION_DOT":8.0e-7,"MEAN_MOTION_DDOT":0},{"OBJECT_NAME":"ONEWEB-0534","OBJECT_ID":"2023-029B","EPOCH":"2026-04-01T06:15:02.520576","MEAN_MOTION":13.20772269,"ECCENTRICITY":0.0001781,"INCLINATION":87.9133,"RA_OF_ASC_NODE":289.835,"ARG_OF_PERICENTER":92.4225,"MEAN_ANOMALY":267.7112,"EPHEMERIS_TYPE":0,"CLASSIFICATION_TYPE":"U","NORAD_CAT_ID":55797,"ELEMENT_SET_NO":999,"REV_AT_EPOCH":15099,"BSTAR":0.00037429,"MEAN_MOTION_DOT":1.65e-6,"MEAN_MOTION_DDOT":0},{"OBJECT_NAME":"ONEWEB-0556","OBJECT_ID":"2023-029C","EPOCH":"2026-04-01T06:24:07.690752","MEAN_MOTION":13.20772967,"ECCENTRICITY":0.000199,"INCLINATION":87.9129,"RA_OF_ASC_NODE":289.8354,"ARG_OF_PERICENTER":117.6829,"MEAN_ANOMALY":242.4506,"EPHEMERIS_TYPE":0,"CLASSIFICATION_TYPE":"U","NORAD_CAT_ID":55798,"ELEMENT_SET_NO":999,"REV_AT_EPOCH":15099,"BSTAR":0.00029441,"MEAN_MOTION_DOT":1.33e-6,"MEAN_MOTION_DDOT":0},{"OBJECT_NAME":"ONEWEB-0562","OBJECT_ID":"2023-029D","EPOCH":"2026-04-01T06:05:56.931360","MEAN_MOTION":13.20772014,"ECCENTRICITY":0.0001147,"INCLINATION":87.9132,"RA_OF_ASC_NODE":289.8182,"ARG_OF_PERICENTER":118.5117,"MEAN_ANOMALY":241.6132,"EPHEMERIS_TYPE":0,"CLASSIFICATION_TYPE":"U","NORAD_CAT_ID":55799,"ELEMENT_SET_NO":999,"REV_AT_EPOCH":15099,"BSTAR":0.00015081,"MEAN_MOTION_DOT":7.4e-7,"MEAN_MOTION_DDOT":0},{"OBJECT_NAME":"ONEWEB-0563","OBJECT_ID":"2023-029E","EPOCH":"2026-04-01T11:24:07.519392","MEAN_MOTION":13.20771221,"ECCENTRICITY":0.0001913,"INCLINATION":87.9129,"RA_OF_ASC_NODE":289.8048,"ARG_OF_PERICENTER":95.0641,"MEAN_ANOMALY":265.071,"EPHEMERIS_TYPE":0,"CLASSIFICATION_TYPE":"U","NORAD_CAT_ID":55800,"ELEMENT_SET_NO":999,"REV_AT_EPOCH":15101,"BSTAR":0.00017962,"MEAN_MOTION_DOT":8.6e-7,"MEAN_MOTION_DDOT":0}]
